#aP2005 12 26  0  0  0.00000000      96 ORBIT IGb00 HLM  IGS
## 1355  86400.00000000   900.00000000 53730 0.0000000000000
+   29     1  2  3  4  5  6  7  8  9 10 11 13 14 15 16 17 18
+         19 20 21 22 23 24 25 26 27 28 29 30  0  0  0  0  0
+          0  0  0  0  0  0  0  0  0  0  0  0  0  0  0  0  0
+          0  0  0  0  0  0  0  0  0  0  0  0  0  0  0  0  0
+          0  0  0  0  0  0  0  0  0  0  0  0  0  0  0  0  0
++         3  4  3  3  3  4  3  3  3  3  3  3  3  3  3  3  3
++         3  3  3  3  3  3  5  3  3  4  3  3  0  0  0  0  0
++         0  0  0  0  0  0  0  0  0  0  0  0  0  0  0  0  0
++         0  0  0  0  0  0  0  0  0  0  0  0  0  0  0  0  0
++         0  0  0  0  0  0  0  0  0  0  0  0  0  0  0  0  0
%c cc cc ccc ccc cccc cccc cccc cccc ccccc ccccc ccccc ccccc
%c cc cc ccc ccc cccc cccc cccc cccc ccccc ccccc ccccc ccccc
%f  0.0000000  0.000000000  0.00000000000  0.000000000000000
%f  0.0000000  0.000000000  0.00000000000  0.000000000000000
%i    0    0    0    0      0      0      0      0         0
%i    0    0    0    0      0      0      0      0         0
/* FINAL ORBIT COMBINATION FROM WEIGHTED AVERAGE OF:        
/* cod emr esa gfz jpl mit ngs sio                          
/* REFERENCED TO IGS TIME (IGST) AND TO WEIGHTED MEAN POLE: 
/* CLK ANT Z-OFFSET (M): II/IIA 1.023; IIR 0.000            
*  2005 12 26 20  0  0.00000000
P  1   4595.571241  14322.174654  22093.619454     27.031913
P  2 -11933.720973 -23065.284198   5691.869685    -23.679819
P  3  11605.201495  13146.924598 -20175.820449     61.670675
P  4  -1291.126474 -21209.708126  15685.683140     98.143585
P  5 -16050.090323   -666.255291  20938.437630    436.306557
P  6 -25180.251736   7060.856536  -4697.315632    150.714221
P  7   7313.163685 -16257.207214  20085.773915    454.923023
P  8   5856.087743 -16131.270634 -20312.855821    -51.322464
P  9 -20251.215324 -12684.298873  11373.156803      1.111057
P 10  -5736.180074 -17844.888934 -18769.989675     76.049209
P 11  22045.465577   9764.813242  11344.470971    294.196984
P 13  24571.570660  -6953.164299  -7266.516399     31.343834
P 14 -10516.481633  14286.321380  19819.256133    -21.888156
P 15  -7400.789437  15293.928247 -20494.658525    540.331241
P 16    397.951327  22619.612483 -13768.774074     19.294360
P 17  12340.717061 -14417.564068  18525.595719     10.539069
P 18 -17313.215881  15692.065647 -12253.954534   -211.000768
P 19  22280.580289   7512.044588 -12285.358510    -24.750189
P 20  16195.163299   -464.967646  20960.568236    -36.996974
P 21 -14197.037979   6621.720317 -21439.148892    161.949256
P 22 -11976.377614  23707.221404    -43.739451     58.322016
P 23  26229.000216    243.639723   4574.746087    157.307967
P 24  10910.046944 -11030.674764  21785.652684     72.451341
P 25   6439.138570  22010.202166  13713.795330    -11.537432
P 26 -19382.588171  -9161.495084 -16419.210420     -3.710986
P 27  13457.867260  -7177.200522 -21191.003577     28.864695
P 28  12895.301377 -22746.955049  -3167.875565     36.264621
P 29 -15475.997641 -10579.774606 -18659.725886    474.658512
P 30 -17323.233439  10458.591041  16868.378808      6.353829
*  2005 12 26 20 15  0.00000000
P  1   2121.655722  14595.098675  22288.020888     27.035790
P  2 -11215.899849 -22568.552996   8366.953842    -23.678912
P  3   9358.722154  13754.424561 -20903.188588     61.673806
P  4     23.997513 -19798.779070  17507.630388     98.155082
P  5 -15361.245415  -3032.974881  21255.871573    436.330997
P  6 -25630.611411   6811.135640  -1935.432279    150.755307
P  7   9456.756808 -16550.260861  18878.584413    454.932534
P  8   7305.615866 -14276.112462 -21252.951073    -51.324182
P  9 -20870.672073 -13758.366259   8869.465513      1.113154
P 10  -4811.515710 -19674.259392 -17094.463538     76.050627
P 11  22643.430758  10837.232121   8976.607098    294.199764
P 13  25248.073971  -6866.729903  -4453.202251     31.345900
P 14 -12676.862697  14479.870946  18351.294556    -21.887633
P 15  -8789.333974  13378.199836 -21309.672834    540.336466
P 16   -350.847916  23886.936411 -11439.197693     19.295734
P 17  14374.417129 -14556.677429  16872.675107     10.549096
P 18 -16875.445175  14182.219668 -14508.477240   -211.003110
P 19  20755.228462   7847.656216 -14522.414831    -24.749378
P 20  15352.611737   1834.136087  21512.446889    -36.996119
P 21 -15604.270978   4631.265039 -21024.699679    161.952876
P 22 -12140.087726  23427.215877  -2885.483514     58.324124
P 23  25579.713863    559.550146   7325.419090    157.306555
P 24  12342.208720  -9042.248406  21959.314276     72.453478
P 25   5171.714314  20961.658688  15803.739461    -11.707061
P 26 -17510.896805  -9457.189825 -18240.481750     -3.717717
P 27  15099.337231  -5269.366389 -20686.630377     28.866058
P 28  12939.516592 -22123.416490  -5976.916300     36.264237
P 29 -13265.589863 -11006.051641 -20025.866793    474.672156
P 30 -16789.048175   8440.883249  18449.800192      6.359735
*  2005 12 26 20 30  0.00000000
P  1   -333.927752  15007.998787  22105.998475     27.039085
P  2 -10275.629843 -21888.732979  10897.912778    -23.678188
P  3   7082.054166  14485.501727 -21277.086136     61.676817
P  4   1529.259594 -18312.178831  19023.824949     98.166596
P  5 -14782.952206  -5442.831424  21200.897515    436.355305
P  6 -25787.036529   6513.610193    859.665830    150.796649
P  7  11440.055853 -16909.042792  17356.151773    454.942265
P  8   8904.347083 -12438.518168 -21829.997270    -51.325177
P  9 -21343.524933 -14581.833872   6212.451285      1.115188
P 10  -4055.005938 -21357.601709 -15122.902201     76.050846
P 11  23080.396554  11703.600177   6455.961716    294.202509
P 13  25609.911839  -6759.501296  -1563.085571     31.347896
P 14 -14643.122597  14758.351871  16568.678175    -21.887268
P 15 -10316.285247  11483.508580 -21761.788188    540.341782
P 16   -943.206477  24930.152414  -8911.113553     19.297086
P 17  16198.606847 -14759.966449  14928.018284     10.558697
P 18 -16428.494173  12426.106484 -16508.462867   -211.004941
P 19  19011.419456   8296.037642 -16508.380574    -24.748931
P 20  14617.047174   4213.011573  21691.333700    -36.995303
P 21 -17063.878388   2769.588806 -20249.648409    161.956713
P 22 -12202.199829  22858.352387  -5677.452262     58.325890
P 23  24650.210972    972.039904   9950.762229    157.304691
P 24  13875.675646  -7135.363595  21763.668887     72.457107
P 25   3696.070168  19830.261802  17627.656455    -11.876403
P 26 -15475.419910  -9895.166905 -19762.781076     -3.723814
P 27  16774.401521  -3506.998287 -19809.224214     28.867248
P 28  12911.582323 -21204.262054  -8680.200448     36.263686
P 29 -10946.205813 -11584.789083 -21042.005109    474.686025
P 30 -16307.382399   6243.544277  19705.531370      6.365336
*  2005 12 26 20 45  0.00000000
P  1  -2722.534928  15549.928947  21550.431329     27.041832
P  2  -9102.844844 -21063.194263  13240.498343    -23.677385
P  3   4819.368830  15331.468529 -21290.430817     61.679422
P  4   3211.901847 -16794.404300  20208.558915     98.178035
P  5 -14325.813841  -7848.828081  20775.001216    436.379505
P  6 -25657.035761   6134.220032   3640.067305    150.837963
P  7  13230.983631 -17304.899238  15542.857890    454.951745
P  8  10627.271877 -10660.738766 -22035.460824    -51.327431
P  9 -21634.022216 -15167.327297   3448.756099      1.116768
P 10  -3454.238411 -22850.754339 -12888.794584     76.051272
P 11  23325.022292  12376.352450   3825.572832    294.205355
P 13  25657.335279  -6591.411438   1354.011033     31.349860
P 14 -16380.660856  15090.172009  14501.727900    -21.886545
P 15 -11957.262394   9651.237836 -21844.505660    540.347248
P 16  -1402.978975  25716.839999  -6228.466023     19.298367
P 17  17783.160445 -14995.196312  12725.178093     10.568430
P 18 -16009.311108  10448.444180 -18219.097908   -211.007117
P 19  17087.665216   8877.399521 -18208.640737    -24.748482
P 20  14005.559778   6625.421926  21494.184532    -36.994025
P 21 -18539.441317   1065.335116 -19128.679275    161.959910
P 22 -12199.757456  21996.328204  -8371.311739     58.327764
P 23  23466.455881   1510.920169  12405.614576    157.303180
P 24  15478.570764  -5345.349857  21202.614996     72.459577
P 25   2022.835593  18658.108494  19155.922341    -12.045420
P 26 -13319.954566 -10488.503985 -20960.624431     -3.730066
P 27  18440.754774  -1916.291495 -18576.449873     28.868247
P 28  12849.978078 -19994.121477 -11229.605593     36.263101
P 29  -8568.125150 -12318.787583 -21689.328613    474.699621
P 30 -15905.616475   3904.589983  20613.197593      6.371049
EOF
